[{"OBJECT_NAME":"STARLINK-34332","OBJECT_ID":"2025-117L","EPOCH":"2026-03-09T05:55:59.078784","MEAN_MOTION":15.30195803,"ECCENTRICITY":0.00011987,"INCLINATION":53.1624,"RA_OF_ASC_NODE":41.9617,"ARG_OF_PERICENTER":71.59,"MEAN_ANOMALY":288.5231,"EPHEMERIS_TYPE":0,"CLASSIFICATION_TYPE":"U","NORAD_CAT_ID":64213,"ELEMENT_SET_NO":999,"REV_AT_EPOCH":4448,"BSTAR":0.00062533404,"MEAN_MOTION_DOT":0.00018204,"MEAN_MOTION_DDOT":0},{"OBJECT_NAME":"CZ-6A DEB","OBJECT_ID":"2022-151SD","EPOCH":"2026-03-09T21:25:15.700512","MEAN_MOTION":15.24469357,"ECCENTRICITY":0.00248717,"INCLINATION":98.6538,"RA_OF_ASC_NODE":157.5128,"ARG_OF_PERICENTER":174.047,"MEAN_ANOMALY":186.1065,"EPHEMERIS_TYPE":0,"CLASSIFICATION_TYPE":"U","NORAD_CAT_ID":54940,"ELEMENT_SET_NO":999,"REV_AT_EPOCH":17680,"BSTAR":0.0087519903,"MEAN_MOTION_DOT":0.00223015,"MEAN_MOTION_DDOT":0}]
